H1 CPF  1  DGF 2022 04 27 11  6171 larets     NONE      
H2   304206 5557    27944 2022 04 27 00 00 00 2022 05 04 00 00 00    30 1 1  0 0 0
H5  0.0650
H9
10 0 59698  82800.000000  0       4934671.188       4955078.024        964067.003
10 0 59698  82830.000000  0       4943989.513       4896861.060       1184569.416
10 0 59698  82860.000000  0       4948017.702       4833638.168       1403859.139
10 0 59698  82890.000000  0       4946729.139       4765496.018       1621711.433
10 0 59698  82920.000000  0       4940103.068       4692526.466       1837902.978
10 0 59698  82950.000000  0       4928124.635       4614826.436       2052212.113
10 0 59698  82980.000000  0       4910784.933       4532497.790       2264419.072
10 0 59698  83010.000000  0       4888081.023       4445647.199       2474306.222
10 0 59698  83040.000000  0       4860015.962       4354386.006       2681658.287
10 0 59698  83070.000000  0       4826598.819       4258830.081       2886262.579
10 0 59698  83100.000000  0       4787844.682       4159099.677       3087909.221
10 0 59698  83130.000000  0       4743774.666       4055319.277       3286391.370
10 0 59698  83160.000000  0       4694415.903       3947617.435       3481505.439
10 0 59698  83190.000000  0       4639801.529       3836126.616       3673051.307
10 0 59698  83220.000000  0       4579970.663       3720983.026       3860832.530
10 0 59698  83250.000000  0       4514968.382       3602326.449       4044656.542
10 0 59698  83280.000000  0       4444845.687       3480300.070       4224334.855
10 0 59698  83310.000000  0       4369659.471       3355050.303       4399683.258
10 0 59698  83340.000000  0       4289472.472       3226726.614       4570522.007
10 0 59698  83370.000000  0       4204353.220       3095481.339       4736676.023
10 0 59698  83400.000000  0       4114375.968       2961469.496       4897975.081
10 0 59698  83430.000000  0       4019620.615       2824848.589       5054253.975
10 0 59698  83460.000000  0       3920172.630       2685778.424       5205352.686
10 0 59698  83490.000000  0       3816122.969       2544420.918       5351116.538
10 0 59698  83520.000000  0       3707567.996       2400939.912       5491396.359
10 0 59698  83550.000000  0       3594609.382       2255500.972       5626048.633
10 0 59698  83580.000000  0       3477354.009       2108271.199       5754935.648
10 0 59698  83610.000000  0       3355913.864       1959419.028       5877925.630
10 0 59698  83640.000000  0       3230405.926       1809114.031       5994892.878
10 0 59698  83670.000000  0       3100952.049       1657526.722       6105717.887
10 0 59698  83700.000000  0       2967678.835       1504828.356       6210287.469
10 0 59698  83730.000000  0       2830717.510       1351190.736       6308494.860
10 0 59698  83760.000000  0       2690203.789       1196786.015       6400239.825
10 0 59698  83790.000000  0       2546277.737       1041786.507       6485428.756
10 0 59698  83820.000000  0       2399083.626        886364.488       6563974.766
10 0 59698  83850.000000  0       2248769.787        730692.011       6635797.773
10 0 59698  83880.000000  0       2095488.456        574940.710       6700824.581
10 0 59698  83910.000000  0       1939395.620        419281.610       6758988.953
10 0 59698  83940.000000  0       1780650.849        263884.940       6810231.678
10 0 59698  83970.000000  0       1619417.135        108919.945       6854500.627
10 0 59698  84000.000000  0       1455860.720        -45445.302       6891750.810
10 0 59698  84030.000000  0       1290150.917       -199044.088       6921944.414
10 0 59698  84060.000000  0       1122459.934       -351711.241       6945050.840
10 0 59698  84090.000000  0        952962.693       -503283.310       6961046.727
10 0 59698  84120.000000  0        781836.643       -653598.739       6969915.977
10 0 59698  84150.000000  0        609261.578       -802498.037       6971649.765
10 0 59698  84180.000000  0        435419.439       -949823.955       6966246.559
10 0 59698  84210.000000  0        260494.123      -1095421.650       6953712.107
10 0 59698  84240.000000  0         84671.283      -1239138.852       6934059.438
10 0 59698  84270.000000  0        -91861.865      -1380826.021       6907308.842
10 0 59698  84300.000000  0       -268916.748      -1520336.510       6873487.853
10 0 59698  84330.000000  0       -446303.640      -1657526.714       6832631.219
10 0 59698  84360.000000  0       -623831.864      -1792256.221       6784780.860
10 0 59698  84390.000000  0       -801310.001      -1924387.956       6729985.831
10 0 59698  84420.000000  0       -978546.090      -2053788.321       6668302.265
10 0 59698  84450.000000  0      -1155347.843      -2180327.331       6599793.320
10 0 59698  84480.000000  0      -1331522.842      -2303878.742       6524529.117
10 0 59698  84510.000000  0      -1506878.758      -2424320.180       6442586.677
10 0 59698  84540.000000  0      -1681223.557      -2541533.266       6354049.843
10 0 59698  84570.000000  0      -1854365.713      -2655403.732       6259009.201
10 0 59698  84600.000000  0      -2026114.424      -2765821.540       6157561.991
10 0 59698  84630.000000  0      -2196279.821      -2872680.990       6049812.017
10 0 59698  84660.000000  0      -2364673.186      -2975880.826       5935869.540
10 0 59698  84690.000000  0      -2531107.167      -3075324.337       5815851.171
10 0 59698  84720.000000  0      -2695395.994      -3170919.452       5689879.754
10 0 59698  84750.000000  0      -2857355.689      -3262578.825       5558084.238
10 0 59698  84780.000000  0      -3016804.282      -3350219.918       5420599.546
10 0 59698  84810.000000  0      -3173562.016      -3433765.077       5277566.438
10 0 59698  84840.000000  0      -3327451.552      -3513141.604       5129131.364
10 0 59698  84870.000000  0      -3478298.174      -3588281.819       4975446.315
10 0 59698  84900.000000  0      -3625929.995      -3659123.118       4816668.672
10 0 59698  84930.000000  0      -3770178.149      -3725608.031       4652961.041
10 0 59698  84960.000000  0      -3910876.996      -3787684.264       4484491.087
10 0 59698  84990.000000  0      -4047864.312      -3845304.741       4311431.365
10 0 59698  85020.000000  0      -4180981.481      -3898427.642       4133959.136
10 0 59698  85050.000000  0      -4310073.681      -3947016.425       3952256.188
10 0 59698  85080.000000  0      -4434990.066      -3991039.851       3766508.651
10 0 59698  85110.000000  0      -4555583.950      -4030472.001       3576906.804
10 0 59698  85140.000000  0      -4671712.979      -4065292.285       3383644.879
10 0 59698  85170.000000  0      -4783239.310      -4095485.449       3186920.861
10 0 59698  85200.000000  0      -4890029.773      -4121041.569       2986936.277
10 0 59698  85230.000000  0      -4991956.037      -4141956.046       2783895.987
10 0 59698  85260.000000  0      -5088894.767      -4158229.587       2578007.969
10 0 59698  85290.000000  0      -5180727.772      -4169868.185       2369483.097
10 0 59698  85320.000000  0      -5267342.153      -4176883.087       2158534.920
10 0 59698  85350.000000  0      -5348630.440      -4179290.758       1945379.440
10 0 59698  85380.000000  0      -5424490.726      -4177112.842       1730234.881
10 0 59698  85410.000000  0      -5494826.794      -4170376.114       1513321.462
10 0 59698  85440.000000  0      -5559548.239      -4159112.422       1294861.165
10 0 59698  85470.000000  0      -5618570.581      -4143358.635       1075077.502
10 0 59698  85500.000000  0      -5671815.375      -4123156.567        854195.274
10 0 59698  85530.000000  0      -5719210.306      -4098552.915        632440.340
10 0 59698  85560.000000  0      -5760689.284      -4069599.175        410039.374
10 0 59698  85590.000000  0      -5796192.533      -4036351.561        187219.632
10 0 59698  85620.000000  0      -5825666.664      -3998870.917        -35791.293
10 0 59698  85650.000000  0      -5849064.753      -3957222.625       -258765.707
10 0 59698  85680.000000  0      -5866346.399      -3911476.503       -481476.059
10 0 59698  85710.000000  0      -5877477.781      -3861706.699       -703695.178
10 0 59698  85740.000000  0      -5882431.705      -3807991.587       -925196.516
10 0 59698  85770.000000  0      -5881187.640      -3750413.641      -1145754.383
10 0 59698  85800.000000  0      -5873731.750      -3689059.326      -1365144.182
10 0 59698  85830.000000  0      -5860056.912      -3624018.966      -1583142.639
10 0 59698  85860.000000  0      -5840162.737      -3555386.622      -1799528.038
10 0 59698  85890.000000  0      -5814055.571      -3483259.957      -2014080.442
10 0 59698  85920.000000  0      -5781748.501      -3407740.106      -2226581.920
10 0 59698  85950.000000  0      -5743261.349      -3328931.537      -2436816.773
10 0 59698  85980.000000  0      -5698620.650      -3246941.910      -2644571.753
10 0 59698  86010.000000  0      -5647859.632      -3161881.931      -2849636.279
10 0 59698  86040.000000  0      -5591018.184      -3073865.204      -3051802.649
10 0 59698  86070.000000  0      -5528142.818      -2983008.085      -3250866.249
10 0 59698  86100.000000  0      -5459286.624      -2889429.526      -3446625.752
10 0 59698  86130.000000  0      -5384509.218      -2793250.923      -3638883.326
10 0 59698  86160.000000  0      -5303876.683      -2694595.960      -3827444.827
10 0 59698  86190.000000  0      -5217461.501      -2593590.451      -4012119.989
10 0 59698  86220.000000  0      -5125342.478      -2490362.182      -4192722.611
10 0 59698  86250.000000  0      -5027604.665      -2385040.748      -4369070.740
10 0 59698  86280.000000  0      -4924339.272      -2277757.398      -4540986.847
10 0 59698  86310.000000  0      -4815643.570      -2168644.868      -4708297.997
10 0 59698  86340.000000  0      -4701620.798      -2057837.221      -4870836.017
10 0 59698  86370.000000  0      -4582380.049      -1945469.686      -5028437.658
99
